{
  "type": "FeatureCollection",
  "features": [
    {
      "type": "Feature",
      "properties": {
        "norad_id": 55973,
        "name": "TIANMU-1 03",
        "group": "weather",
        "lat": -8.942514712342392,
        "lon": -30.010974692361437,
        "alt_km": 449.42521514914915,
        "timestamp": "2025-12-14T11:29:49.700244+00:00",
        "meta_object_name": "TIANMU-1 03",
        "meta_object_id": "2023-039A",
        "meta_epoch": "2025-12-13T15:58:43.135392",
        "meta_mean_motion": 15.4095928,
        "meta_eccentricity": 0.00043497,
        "meta_inclination": 97.5105,
        "meta_ra_of_asc_node": 150.3428,
        "meta_arg_of_pericenter": 58.7577,
        "meta_mean_anomaly": 301.4095,
        "meta_ephemeris_type": 0,
        "meta_classification_type": "U",
        "meta_norad_cat_id": 55973,
        "meta_element_set_no": 999,
        "meta_rev_at_epoch": 15220,
        "meta_bstar": 0.00041049314,
        "meta_mean_motion_dot": 0.00016837,
        "meta_mean_motion_ddot": 0,
        "tle_line1": "1 55973U 23039A   25347.66577703  .00016837  00000+0  41049-3 0  9993",
        "tle_line2": "2 55973  97.5105 150.3428 0004349  58.7577 301.4095 15.40959280152205"
      },
      "geometry": {
        "type": "Point",
        "coordinates": [
          -30.010974692361437,
          -8.942514712342392
        ]
      }
    },
    {
      "type": "Feature",
      "properties": {
        "norad_id": 55974,
        "name": "TIANMU-1 04",
        "group": "weather",
        "lat": -54.49667298682267,
        "lon": 161.01674911549296,
        "alt_km": 450.1826905550288,
        "timestamp": "2025-12-14T11:29:49.700255+00:00",
        "meta_object_name": "TIANMU-1 04",
        "meta_object_id": "2023-039B",
        "meta_epoch": "2025-12-13T15:28:49.949184",
        "meta_mean_motion": 15.41296979,
        "meta_eccentricity": 0.00049992,
        "meta_inclination": 97.5037,
        "meta_ra_of_asc_node": 149.5122,
        "meta_arg_of_pericenter": 53.4263,
        "meta_mean_anomaly": 306.7442,
        "meta_ephemeris_type": 0,
        "meta_classification_type": "U",
        "meta_norad_cat_id": 55974,
        "meta_element_set_no": 999,
        "meta_rev_at_epoch": 15220,
        "meta_bstar": 0.00039780714,
        "meta_mean_motion_dot": 0.00016499,
        "meta_mean_motion_ddot": 0,
        "tle_line1": "1 55974U 23039B   25347.64502256  .00016499  00000+0  39781-3 0  9997",
        "tle_line2": "2 55974  97.5037 149.5122 0004999  53.4263 306.7442 15.41296979152200"
      },
      "geometry": {
        "type": "Point",
        "coordinates": [
          161.01674911549296,
          -54.49667298682267
        ]
      }
    },
    {
      "type": "Feature",
      "properties": {
        "norad_id": 55975,
        "name": "TIANMU-1 05",
        "group": "weather",
        "lat": -25.472118060815816,
        "lon": 154.46373524983028,
        "alt_km": 449.48570207263947,
        "timestamp": "2025-12-14T11:29:49.700265+00:00",
        "meta_object_name": "TIANMU-1 05",
        "meta_object_id": "2023-039C",
        "meta_epoch": "2025-12-13T15:20:52.089792",
        "meta_mean_motion": 15.40916323,
        "meta_eccentricity": 0.00043194,
        "meta_inclination": 97.5083,
        "meta_ra_of_asc_node": 149.9989,
        "meta_arg_of_pericenter": 75.7737,
        "meta_mean_anomaly": 284.3988,
        "meta_ephemeris_type": 0,
        "meta_classification_type": "U",
        "meta_norad_cat_id": 55975,
        "meta_element_set_no": 999,
        "meta_rev_at_epoch": 15218,
        "meta_bstar": 0.00040141403,
        "meta_mean_motion_dot": 0.00016438,
        "meta_mean_motion_ddot": 0,
        "tle_line1": "1 55975U 23039C   25347.63949178  .00016438  00000+0  40141-3 0  9990",
        "tle_line2": "2 55975  97.5083 149.9989 0004319  75.7737 284.3988 15.40916323152180"
      },
      "geometry": {
        "type": "Point",
        "coordinates": [
          154.46373524983028,
          -25.472118060815816
        ]
      }
    },
    {
      "type": "Feature",
      "properties": {
        "norad_id": 55976,
        "name": "TIANMU-1 06",
        "group": "weather",
        "lat": -65.7586822608112,
        "lon": 168.36328214857483,
        "alt_km": 451.5098663300705,
        "timestamp": "2025-12-14T11:29:49.700275+00:00",
        "meta_object_name": "TIANMU-1 06",
        "meta_object_id": "2023-039D",
        "meta_epoch": "2025-12-13T17:05:24.339264",
        "meta_mean_motion": 15.41351514,
        "meta_eccentricity": 0.00046087,
        "meta_inclination": 97.5096,
        "meta_ra_of_asc_node": 150.5393,
        "meta_arg_of_pericenter": 70.4817,
        "meta_mean_anomaly": 289.6927,
        "meta_ephemeris_type": 0,
        "meta_classification_type": "U",
        "meta_norad_cat_id": 55976,
        "meta_element_set_no": 999,
        "meta_rev_at_epoch": 15221,
        "meta_bstar": 0.00040166866,
        "meta_mean_motion_dot": 0.00016689,
        "meta_mean_motion_ddot": 0,
        "tle_line1": "1 55976U 23039D   25347.71208726  .00016689  00000+0  40167-3 0  9993",
        "tle_line2": "2 55976  97.5096 150.5393 0004608  70.4817 289.6927 15.41351514152215"
      },
      "geometry": {
        "type": "Point",
        "coordinates": [
          168.36328214857483,
          -65.7586822608112
        ]
      }
    },
    {
      "type": "Feature",
      "properties": {
        "norad_id": 56232,
        "name": "FENGYUN 3G",
        "group": "weather",
        "lat": 48.16754781448383,
        "lon": -31.294789056400514,
        "alt_km": 395.07615245085253,
        "timestamp": "2025-12-14T11:29:49.700288+00:00",
        "meta_object_name": "FENGYUN 3G",
        "meta_object_id": "2023-055A",
        "meta_epoch": "2025-12-13T16:31:58.068192",
        "meta_mean_motion": 15.53721399,
        "meta_eccentricity": 0.00093376,
        "meta_inclination": 49.993,
        "meta_ra_of_asc_node": 222.5568,
        "meta_arg_of_pericenter": 152.7146,
        "meta_mean_anomaly": 207.4314,
        "meta_ephemeris_type": 0,
        "meta_classification_type": "U",
        "meta_norad_cat_id": 56232,
        "meta_element_set_no": 999,
        "meta_rev_at_epoch": 15117,
        "meta_bstar": 0.00053062346,
        "meta_mean_motion_dot": 0.00034392,
        "meta_mean_motion_ddot": 0,
        "tle_line1": "1 56232U 23055A   25347.68886653  .00034392  00000+0  53062-3 0  9993",
        "tle_line2": "2 56232  49.9930 222.5568 0009337 152.7146 207.4314 15.53721399151173"
      },
      "geometry": {
        "type": "Point",
        "coordinates": [
          -31.294789056400514,
          48.16754781448383
        ]
      }
    },
    {
      "type": "Feature",
      "properties": {
        "norad_id": 57166,
        "name": "METEOR-M2 3",
        "group": "weather",
        "lat": 20.861568976716207,
        "lon": -134.69114539199552,
        "alt_km": 814.1447575423035,
        "timestamp": "2025-12-14T11:29:49.700299+00:00",
        "meta_object_name": "METEOR-M2 3",
        "meta_object_id": "2023-091A",
        "meta_epoch": "2025-12-13T16:12:16.338240",
        "meta_mean_motion": 14.24026234,
        "meta_eccentricity": 0.00038548,
        "meta_inclination": 98.6377,
        "meta_ra_of_asc_node": 41.1982,
        "meta_arg_of_pericenter": 6.3835,
        "meta_mean_anomaly": 353.7393,
        "meta_ephemeris_type": 0,
        "meta_classification_type": "U",
        "meta_norad_cat_id": 57166,
        "meta_element_set_no": 999,
        "meta_rev_at_epoch": 12811,
        "meta_bstar": 3.113869e-05,
        "meta_mean_motion_dot": 2.8e-07,
        "meta_mean_motion_ddot": 0,
        "tle_line1": "1 57166U 23091A   25347.67518910  .00000028  00000+0  31139-4 0  9998",
        "tle_line2": "2 57166  98.6377  41.1982 0003854   6.3835 353.7393 14.24026234128111"
      },
      "geometry": {
        "type": "Point",
        "coordinates": [
          -134.69114539199552,
          20.861568976716207
        ]
      }
    },
    {
      "type": "Feature",
      "properties": {
        "norad_id": 57399,
        "name": "TIANMU-1 07",
        "group": "weather",
        "lat": -80.42141876266665,
        "lon": 87.61466530479608,
        "alt_km": 492.43748664130453,
        "timestamp": "2025-12-14T11:29:49.700311+00:00",
        "meta_object_name": "TIANMU-1 07",
        "meta_object_id": "2023-101A",
        "meta_epoch": "2025-12-13T15:25:57.991584",
        "meta_mean_motion": 15.28089589,
        "meta_eccentricity": 0.00055593,
        "meta_inclination": 97.2882,
        "meta_ra_of_asc_node": 37.4729,
        "meta_arg_of_pericenter": 79.3914,
        "meta_mean_anomaly": 280.7952,
        "meta_ephemeris_type": 0,
        "meta_classification_type": "U",
        "meta_norad_cat_id": 57399,
        "meta_element_set_no": 999,
        "meta_rev_at_epoch": 13329,
        "meta_bstar": 0.00032064786,
        "meta_mean_motion_dot": 8.715e-05,
        "meta_mean_motion_ddot": 0,
        "tle_line1": "1 57399U 23101A   25347.64303231  .00008715  00000+0  32065-3 0  9992",
        "tle_line2": "2 57399  97.2882  37.4729 0005559  79.3914 280.7952 15.28089589133296"
      },
      "geometry": {
        "type": "Point",
        "coordinates": [
          87.61466530479608,
          -80.42141876266665
        ]
      }
    }
  ]
}